OBJECT_NAME,OBJECT_ID,EPOCH,MEAN_MOTION,ECCENTRICITY,INCLINATION,RA_OF_ASC_NODE,ARG_OF_PERICENTER,MEAN_ANOMALY,EPHEMERIS_TYPE,CLASSIFICATION_TYPE,NORAD_CAT_ID,ELEMENT_SET_NO,REV_AT_EPOCH,BSTAR,MEAN_MOTION_DOT,MEAN_MOTION_DDOT
ONEWEB-0534,2023-029B,2026-06-13T14:14:23.863200,13.20771409,.00018805,87.9181,275.1861,100.2077,259.9269,0,U,55797,999,16067,.617646E-4,.38E-6,0
ONEWEB-0556,2023-029C,2026-06-13T14:24:05.840640,13.20773862,.0001734,87.9181,275.1842,74.1500,285.9824,0,U,55798,999,16067,-.88545775E-4,-.23E-6,0
ONEWEB-0562,2023-029D,2026-06-13T14:04:41.707776,13.20771110,.00024189,87.9181,275.1678,80.7578,279.3829,0,U,55799,999,16067,.13216434E-3,.67E-6,0
ONEWEB-0563,2023-029E,2026-06-13T13:57:26.255232,13.20772147,.00017413,87.9182,275.1993,101.7742,258.3587,0,U,55800,999,16066,.78724686E-4,.45E-6,0
ONEWEB-0564,2023-029F,2026-06-13T13:47:44.431584,13.20771081,.00022101,87.9184,275.1740,91.2785,268.8601,0,U,55801,999,16067,.15275989E-3,.75E-6,0
ONEWEB-0638,2023-029G,2026-06-13T14:05:33.426816,13.14498385,.00015847,87.8951,290.4693,85.9799,274.1512,0,U,55802,999,15892,.50241998E-2,.1876E-4,0
ONEWEB-0639,2023-029H,2026-06-13T11:14:40.839072,13.19725495,.00011137,87.9165,305.7168,124.8900,235.2338,0,U,55803,999,15841,-.2617393E-4,.2E-7,0
ONEWEB-0640,2023-029J,2026-06-13T14:19:14.340864,13.14503152,.00014616,87.8953,290.4585,80.8407,279.2888,0,U,55804,999,15894,-.26159774E-3,-.84E-6,0
ONEWEB-0641,2023-029K,2026-06-13T09:18:40.111200,13.19725018,.00017268,87.9174,305.7218,102.2108,257.9218,0,U,55805,999,15841,-.18394007E-4,.6E-7,0
ONEWEB-0642,2023-029L,2026-06-13T09:11:51.225792,13.19725054,.00014084,87.9167,305.7349,124.1205,236.0061,0,U,55806,999,15840,.60041504E-4,.37E-6,0
ONEWEB-0643,2023-029M,2026-06-13T15:25:28.565472,13.14503155,.00017794,87.8951,290.4367,121.8474,238.2829,0,U,55807,999,15892,.63317608E-3,.248E-5,0
ONEWEB-0644,2023-029N,2026-06-13T09:05:01.288032,13.19724400,.00016407,87.9164,305.7372,107.9690,252.1621,0,U,55808,999,15840,-.34051654E-4,-.1E-7,0
ONEWEB-0645,2023-029P,2026-06-13T09:36:51.746688,13.19724485,.00013757,87.9164,305.7297,96.4390,263.6899,0,U,55809,999,15840,.19039308E-3,.89E-6,0
ONEWEB-0646,2023-029Q,2026-06-13T15:29:25.785312,13.19725577,.0001716,87.9164,305.6812,106.5751,253.5571,0,U,55810,999,15842,.19346785E-3,.9E-6,0
ONEWEB-0648,2023-029R,2026-06-13T14:39:46.010016,13.14501498,.0001039,87.8963,290.4164,112.9167,247.2072,0,U,55811,999,15892,-.73638981E-3,-.26E-5,0
ONEWEB-0649,2023-029S,2026-06-13T08:49:06.115296,13.19724438,.00015709,87.9163,305.7345,99.6826,260.4484,0,U,55812,999,15842,-.30847263E-4,.1E-7,0
ONEWEB-0650,2023-029T,2026-06-13T10:31:26.261760,13.19724902,.00014659,87.9164,305.7228,113.3903,246.7384,0,U,55813,999,15840,.11867283E-3,.6E-6,0
ONEWEB-0652,2023-029U,2026-06-13T14:12:22.132512,13.14504627,.00020553,87.8959,290.4273,99.1217,261.0146,0,U,55814,999,15889,-.1140201E-4,.9E-7,0
ONEWEB-0653,2023-029V,2026-06-13T10:10:19.758720,13.14503494,.00018812,87.8961,290.4587,96.9757,263.1587,0,U,55815,999,15890,.64369588E-3,.251E-5,0
ONEWEB-0654,2023-029W,2026-06-13T08:13:52.319424,13.14504312,.00021532,87.8959,290.4711,93.0989,267.0387,0,U,55816,999,15891,.83045142E-3,.321E-5,0
ONEWEB-0656,2023-029X,2026-06-13T13:38:02.466240,13.20773572,.00023351,87.9196,275.1508,93.3690,266.7710,0,U,55817,999,16067,.21171724E-3,.99E-6,0
ONEWEB-0657,2023-029Y,2026-06-13T15:52:10.328160,13.19724621,.00025078,87.9165,305.6771,104.6649,255.4762,0,U,55818,999,15844,.12159934E-3,.62E-6,0
ONEWEB-0658,2023-029Z,2026-06-13T15:45:20.705760,13.19724921,.00016179,87.9173,305.6533,109.7285,250.4023,0,U,55819,999,15845,.23563953E-3,.107E-5,0
ONEWEB-0660,2023-029AA,2026-06-13T09:31:30.634176,13.14504040,.00015839,87.8969,290.4532,95.9252,264.2058,0,U,55820,999,15890,.25195296E-3,.106E-5,0
ONEWEB-0661,2023-029AB,2026-06-13T14:00:58.794912,13.14502891,.00016691,87.8953,290.4612,92.6364,267.4957,0,U,55821,999,15891,.39596791E-3,.16E-5,0
ONEWEB-0662,2023-029AC,2026-06-13T14:51:12.660192,13.14502410,.00015662,87.8948,290.4606,96.3806,263.7502,0,U,55822,999,15896,-.43175543E-3,-.147E-5,0
ONEWEB-0663,2023-029AD,2026-06-13T14:26:56.802912,13.20869027,.00015364,87.9195,275.2158,104.2807,255.8497,0,U,55823,999,16067,-.13740833E-3,-.43E-6,0
ONEWEB-0664,2023-029AE,2026-06-13T13:18:38.412000,13.20770546,.00018478,87.9180,275.2068,86.0544,274.0801,0,U,55824,999,16066,.21432788E-3,.1E-5,0
ONEWEB-0665,2023-029AF,2026-06-13T13:56:24.837792,13.14503217,.00015519,87.8954,290.4427,99.8345,260.2960,0,U,55825,999,15893,.5620018E-3,.221E-5,0
ONEWEB-0666,2023-029AG,2026-06-13T13:08:56.773248,13.20771559,.00026613,87.9183,275.1979,107.2739,252.8686,0,U,55826,999,16067,.81845935E-4,.46E-6,0
