ONEWEB-0534             
1 55797U 23029B   26164.59333175  .00000038  00000+0  61765-4 0  9993
2 55797  87.9181 275.1861 0001880 100.2077 259.9269 13.20771409160679
ONEWEB-0556             
1 55798U 23029C   26164.60006760 -.00000023  00000+0 -88546-4 0  9995
2 55798  87.9181 275.1842 0001734  74.1500 285.9824 13.20773862160678
ONEWEB-0562             
1 55799U 23029D   26164.58659384  .00000067  00000+0  13216-3 0  9996
2 55799  87.9181 275.1678 0002418  80.7578 279.3829 13.20771110160670
ONEWEB-0563             
1 55800U 23029E   26164.58155388  .00000045  00000+0  78725-4 0  9997
2 55800  87.9182 275.1993 0001741 101.7742 258.3587 13.20772147160667
ONEWEB-0564             
1 55801U 23029F   26164.57481981  .00000075  00000+0  15276-3 0  9992
2 55801  87.9184 275.1740 0002210  91.2785 268.8601 13.20771081160672
ONEWEB-0638             
1 55802U 23029G   26164.58719244  .00001876  00000+0  50242-2 0  9991
2 55802  87.8951 290.4693 0001584  85.9799 274.1512 13.14498385158921
ONEWEB-0639             
1 55803U 23029H   26164.46852823  .00000002  00000+0 -26174-4 0  9990
2 55803  87.9165 305.7168 0001113 124.8900 235.2338 13.19725495158410
ONEWEB-0640             
1 55804U 23029J   26164.59669376 -.00000084  00000+0 -26160-3 0  9999
2 55804  87.8953 290.4585 0001461  80.8407 279.2888 13.14503152158942
ONEWEB-0641             
1 55805U 23029K   26164.38796425  .00000006  00000+0 -18394-4 0  9997
2 55805  87.9174 305.7218 0001726 102.2108 257.9218 13.19725018158417
ONEWEB-0642             
1 55806U 23029L   26164.38323178  .00000037  00000+0  60042-4 0  9999
2 55806  87.9167 305.7349 0001408 124.1205 236.0061 13.19725054158406
ONEWEB-0643             
1 55807U 23029M   26164.64269173  .00000248  00000+0  63318-3 0  9995
2 55807  87.8951 290.4367 0001779 121.8474 238.2829 13.14503155158924
ONEWEB-0644             
1 55808U 23029N   26164.37848713 -.00000001  00000+0 -34052-4 0  9992
2 55808  87.9164 305.7372 0001640 107.9690 252.1621 13.19724400158401
ONEWEB-0645             
1 55809U 23029P   26164.40059892  .00000089  00000+0  19039-3 0  9990
2 55809  87.9164 305.7297 0001375  96.4390 263.6899 13.19724485158409
ONEWEB-0646             
1 55810U 23029Q   26164.64543733  .00000090  00000+0  19347-3 0  9994
2 55810  87.9164 305.6812 0001716 106.5751 253.5571 13.19725577158426
ONEWEB-0648             
1 55811U 23029R   26164.61094919 -.00000260  00000+0 -73639-3 0  9994
2 55811  87.8963 290.4164 0001039 112.9167 247.2072 13.14501498158924
ONEWEB-0649             
1 55812U 23029S   26164.36743189  .00000001  00000+0 -30847-4 0  9994
2 55812  87.9163 305.7345 0001570  99.6826 260.4484 13.19724438158427
ONEWEB-0650             
1 55813U 23029T   26164.43849840  .00000060  00000+0  11867-3 0  9998
2 55813  87.9164 305.7228 0001465 113.3903 246.7384 13.19724902158402
ONEWEB-0652             
1 55814U 23029U   26164.59192283  .00000009  00000+0 -11402-4 0  9998
2 55814  87.8959 290.4273 0002055  99.1217 261.0146 13.14504627158893
ONEWEB-0653             
1 55815U 23029V   26164.42383980  .00000251  00000+0  64370-3 0  9996
2 55815  87.8961 290.4587 0001881  96.9757 263.1587 13.14503494158900
ONEWEB-0654             
1 55816U 23029W   26164.34296666  .00000321  00000+0  83045-3 0  9990
2 55816  87.8959 290.4711 0002153  93.0989 267.0387 13.14504312158917
ONEWEB-0656             
1 55817U 23029X   26164.56808410  .00000099  00000+0  21172-3 0  9996
2 55817  87.9196 275.1508 0002335  93.3690 266.7710 13.20773572160675
ONEWEB-0657             
1 55818U 23029Y   26164.66123065  .00000062  00000+0  12160-3 0  9991
2 55818  87.9165 305.6771 0002507 104.6649 255.4762 13.19724621158447
ONEWEB-0658             
1 55819U 23029Z   26164.65648965  .00000107  00000+0  23564-3 0  9992
2 55819  87.9173 305.6533 0001617 109.7285 250.4023 13.19724921158455
ONEWEB-0660             
1 55820U 23029AA  26164.39688234  .00000106  00000+0  25195-3 0  9999
2 55820  87.8969 290.4532 0001583  95.9252 264.2058 13.14504040158905
ONEWEB-0661             
1 55821U 23029AB  26164.58401383  .00000160  00000+0  39597-3 0  9990
2 55821  87.8953 290.4612 0001669  92.6364 267.4957 13.14502891158917
ONEWEB-0662             
1 55822U 23029AC  26164.61889653 -.00000147  00000+0 -43176-3 0  9990
2 55822  87.8948 290.4606 0001566  96.3806 263.7502 13.14502410158960
ONEWEB-0663             
1 55823U 23029AD  26164.60204633 -.00000043  00000+0 -13741-3 0  9999
2 55823  87.9195 275.2158 0001536 104.2807 255.8497 13.20869027160679
ONEWEB-0664             
1 55824U 23029AE  26164.55461125  .00000100  00000+0  21433-3 0  9994
2 55824  87.9180 275.2068 0001847  86.0544 274.0801 13.20770546160662
ONEWEB-0665             
1 55825U 23029AF  26164.58084303  .00000221  00000+0  56200-3 0  9991
2 55825  87.8954 290.4427 0001551  99.8345 260.2960 13.14503217158934
ONEWEB-0666             
1 55826U 23029AG  26164.54787932  .00000046  00000+0  81846-4 0  9996
2 55826  87.9183 275.1979 0002661 107.2739 252.8686 13.20771559160675
